OPTUS D1                
1 29495U 06043B   23117.12688362 -.00000170  00000+0  00000+0 0  9999
2 29495   0.0692  85.1394 0000693 214.9651 118.6270  1.00072317 60646
XM-4 (BLUES)            
1 29520U 06049A   23117.24771501 -.00000257  00000+0  00000+0 0  9991
2 29520   0.0404 309.8487 0001166 175.1023 140.2228  1.00274655 60498
BADR-4                  
1 29526U 06051A   23116.90743956  .00000143  00000+0  00000+0 0  9998
2 29526   0.0516 315.7316 0004292  52.5406 199.0655  1.00277117 39769
WILDBLUE-1              
1 29643U 06054A   23116.65554058 -.00000051  00000+0  00000+0 0  9995
2 29643   0.0159 250.5664 0001673 136.3325 312.3077  1.00273220 42285
AMC-18                  
1 29644U 06054B   23116.99459652 -.00000218  00000+0  00000+0 0  9992
2 29644   0.0378  68.2785 0002238 317.2374 104.2601  1.00273767 60028
SKYNET 5A               
1 30794U 07007B   23116.79264392 -.00000272  00000+0  00000+0 0  9992
2 30794   2.3617  87.1278 0003633 317.0680 190.8950  1.00269846 59199
ANIK F3                 
1 31102U 07009A   23116.65405878 -.00000003  00000+0  00000+0 0  9991
2 31102   0.0168 254.8796 0002277 130.3214 305.9409  1.00271293 35055
ASTRA 1L                
1 31306U 07016A   23116.80327184  .00000118  00000+0  00000+0 0  9991
2 31306   0.0438   8.4124 0004389 333.3541 181.1205  1.00271980 33502
GALAXY 17 (G-17)        
1 31307U 07016B   23116.58790069 -.00000176  00000+0  00000+0 0  9998
2 31307   0.0581  88.1447 0001477   4.4735 242.3449  1.00271052 58294
ZHONGXING-6B            
1 31800U 07031A   23117.16041491 -.00000363  00000+0  00000+0 0  9994
2 31800   0.0167 238.4868 0003402 146.5849   3.0755  1.00272645 57978
DIRECTV 10              
1 31862U 07032A   23117.59658747 -.00000104  00000+0  00000+0 0  9991
2 31862   0.0314  45.3905 0000450 220.2721  61.6330  1.00269888 57903
SPACEWAY 3              
1 32018U 07036A   23116.58711622 -.00000153  00000+0  00000+0 0  9993
2 32018   1.0219  90.0124 0000244 287.6427 313.0759  1.00271912 35044
BSAT-3A                 
1 32019U 07036B   23117.05118701 -.00000352  00000+0  00000+0 0  9997
2 32019   0.0364 178.4082 0000339  73.4597  91.1809  1.00271153 57561
OPTUS D2                
1 32252U 07044A   23116.87341111 -.00000113  00000+0  00000+0 0  9992
2 32252   0.0032  67.2098 0002809 332.0344 289.7880  1.00271225 57061
INTELSAT 11 (IS-11)     
1 32253U 07044B   23116.74085137 -.00000270  00000+0  00000+0 0  9996
2 32253   0.5872  92.5452 0003045 307.9871  37.6419  1.00273128 56985
WGS F1 (USA 195)        
1 32258U 07046A   23116.99424623  .00000039  00000+0  00000+0 0  9999
2 32258   0.0120 255.6146 0000319 352.7798 330.2507  1.00270724 56811
SKYNET 5B               
1 32294U 07056B   23116.68273639  .00000141  00000+0  00000+0 0  9999
2 32294   2.3194  86.4963 0003636 307.4892  91.3365  1.00274772 56691
