[{"OBJECT_NAME":"OPTUS D1","OBJECT_ID":"2006-043B","EPOCH":"2023-04-27T03:02:42.744768","MEAN_MOTION":1.00072317,"ECCENTRICITY":6.93e-5,"INCLINATION":0.0692,"RA_OF_ASC_NODE":85.1394,"ARG_OF_PERICENTER":214.9651,"MEAN_ANOMALY":118.627,"EPHEMERIS_TYPE":0,"CLASSIFICATION_TYPE":"U","NORAD_CAT_ID":29495,"ELEMENT_SET_NO":999,"REV_AT_EPOCH":6064,"BSTAR":0,"MEAN_MOTION_DOT":-1.7e-6,"MEAN_MOTION_DDOT":0},{"OBJECT_NAME":"XM-4 (BLUES)","OBJECT_ID":"2006-049A","EPOCH":"2023-04-27T05:56:42.576864","MEAN_MOTION":1.00274655,"ECCENTRICITY":0.0001166,"INCLINATION":0.0404,"RA_OF_ASC_NODE":309.8487,"ARG_OF_PERICENTER":175.1023,"MEAN_ANOMALY":140.2228,"EPHEMERIS_TYPE":0,"CLASSIFICATION_TYPE":"U","NORAD_CAT_ID":29520,"ELEMENT_SET_NO":999,"REV_AT_EPOCH":6049,"BSTAR":0,"MEAN_MOTION_DOT":-2.57e-6,"MEAN_MOTION_DDOT":0},{"OBJECT_NAME":"BADR-4","OBJECT_ID":"2006-051A","EPOCH":"2023-04-26T21:46:42.777984","MEAN_MOTION":1.00277117,"ECCENTRICITY":0.0004292,"INCLINATION":0.0516,"RA_OF_ASC_NODE":315.7316,"ARG_OF_PERICENTER":52.5406,"MEAN_ANOMALY":199.0655,"EPHEMERIS_TYPE":0,"CLASSIFICATION_TYPE":"U","NORAD_CAT_ID":29526,"ELEMENT_SET_NO":999,"REV_AT_EPOCH":3976,"BSTAR":0,"MEAN_MOTION_DOT":1.43e-6,"MEAN_MOTION_DDOT":0},{"OBJECT_NAME":"WILDBLUE-1","OBJECT_ID":"2006-054A","EPOCH":"2023-04-26T15:43:58.706112","MEAN_MOTION":1.0027322,"ECCENTRICITY":0.0001673,"INCLINATION":0.0159,"RA_OF_ASC_NODE":250.5664,"ARG_OF_PERICENTER":136.3325,"MEAN_ANOMALY":312.3077,"EPHEMERIS_TYPE":0,"CLASSIFICATION_TYPE":"U","NORAD_CAT_ID":29643,"ELEMENT_SET_NO":999,"REV_AT_EPOCH":4228,"BSTAR":0,"MEAN_MOTION_DOT":-5.1e-7,"MEAN_MOTION_DDOT":0},{"OBJECT_NAME":"AMC-18","OBJECT_ID":"2006-054B","EPOCH":"2023-04-26T23:52:13.139328","MEAN_MOTION":1.00273767,"ECCENTRICITY":0.0002238,"INCLINATION":0.0378,"RA_OF_ASC_NODE":68.2785,"ARG_OF_PERICENTER":317.2374,"MEAN_ANOMALY":104.2601,"EPHEMERIS_TYPE":0,"CLASSIFICATION_TYPE":"U","NORAD_CAT_ID":29644,"ELEMENT_SET_NO":999,"REV_AT_EPOCH":6002,"BSTAR":0,"MEAN_MOTION_DOT":-2.18e-6,"MEAN_MOTION_DDOT":0},{"OBJECT_NAME":"SKYNET 5A","OBJECT_ID":"2007-007B","EPOCH":"2023-04-26T19:01:24.434688","MEAN_MOTION":1.00269846,"ECCENTRICITY":0.0003633,"INCLINATION":2.3617,"RA_OF_ASC_NODE":87.1278,"ARG_OF_PERICENTER":317.068,"MEAN_ANOMALY":190.895,"EPHEMERIS_TYPE":0,"CLASSIFICATION_TYPE":"U","NORAD_CAT_ID":30794,"ELEMENT_SET_NO":999,"REV_AT_EPOCH":5919,"BSTAR":0,"MEAN_MOTION_DOT":-2.72e-6,"MEAN_MOTION_DDOT":0},{"OBJECT_NAME":"ANIK F3","OBJECT_ID":"2007-009A","EPOCH":"2023-04-26T15:41:50.678592","MEAN_MOTION":1.00271293,"ECCENTRICITY":0.0002277,"INCLINATION":0.0168,"RA_OF_ASC_NODE":254.8796,"ARG_OF_PERICENTER":130.3214,"MEAN_ANOMALY":305.9409,"EPHEMERIS_TYPE":0,"CLASSIFICATION_TYPE":"U","NORAD_CAT_ID":31102,"ELEMENT_SET_NO":999,"REV_AT_EPOCH":3505,"BSTAR":0,"MEAN_MOTION_DOT":-3.0e-8,"MEAN_MOTION_DDOT":0},{"OBJECT_NAME":"ASTRA 1L","OBJECT_ID":"2007-016A","EPOCH":"2023-04-26T19:16:42.686976","MEAN_MOTION":1.0027198,"ECCENTRICITY":0.0004389,"INCLINATION":0.0438,"RA_OF_ASC_NODE":8.4124,"ARG_OF_PERICENTER":333.3541,"MEAN_ANOMALY":181.1205,"EPHEMERIS_TYPE":0,"CLASSIFICATION_TYPE":"U","NORAD_CAT_ID":31306,"ELEMENT_SET_NO":999,"REV_AT_EPOCH":3350,"BSTAR":0,"MEAN_MOTION_DOT":1.18e-6,"MEAN_MOTION_DDOT":0},{"OBJECT_NAME":"GALAXY 17 (G-17)","OBJECT_ID":"2007-016B","EPOCH":"2023-04-26T14:06:34.619616","MEAN_MOTION":1.00271052,"ECCENTRICITY":0.0001477,"INCLINATION":0.0581,"RA_OF_ASC_NODE":88.1447,"ARG_OF_PERICENTER":4.4735,"MEAN_ANOMALY":242.3449,"EPHEMERIS_TYPE":0,"CLASSIFICATION_TYPE":"U","NORAD_CAT_ID":31307,"ELEMENT_SET_NO":999,"REV_AT_EPOCH":5829,"BSTAR":0,"MEAN_MOTION_DOT":-1.76e-6,"MEAN_MOTION_DDOT":0},{"OBJECT_NAME":"ZHONGXING-6B","OBJECT_ID":"2007-031A","EPOCH":"2023-04-27T03:50:59.848224","MEAN_MOTION":1.00272645,"ECCENTRICITY":0.0003402,"INCLINATION":0.0167,"RA_OF_ASC_NODE":238.4868,"ARG_OF_PERICENTER":146.5849,"MEAN_ANOMALY":3.0755,"EPHEMERIS_TYPE":0,"CLASSIFICATION_TYPE":"U","NORAD_CAT_ID":31800,"ELEMENT_SET_NO":999,"REV_AT_EPOCH":5797,"BSTAR":0,"MEAN_MOTION_DOT":-3.63e-6,"MEAN_MOTION_DDOT":0},{"OBJECT_NAME":"DIRECTV 10","OBJECT_ID":"2007-032A","EPOCH":"2023-04-27T14:19:05.157408","MEAN_MOTION":1.00269888,"ECCENTRICITY":4.5e-5,"INCLINATION":0.0314,"RA_OF_ASC_NODE":45.3905,"ARG_OF_PERICENTER":220.2721,"MEAN_ANOMALY":61.633,"EPHEMERIS_TYPE":0,"CLASSIFICATION_TYPE":"U","NORAD_CAT_ID":31862,"ELEMENT_SET_NO":999,"REV_AT_EPOCH":5790,"BSTAR":0,"MEAN_MOTION_DOT":-1.04e-6,"MEAN_MOTION_DDOT":0},{"OBJECT_NAME":"SPACEWAY 3","OBJECT_ID":"2007-036A","EPOCH":"2023-04-26T14:05:26.841408","MEAN_MOTION":1.00271912,"ECCENTRICITY":2.44e-5,"INCLINATION":1.0219,"RA_OF_ASC_NODE":90.0124,"ARG_OF_PERICENTER":287.6427,"MEAN_ANOMALY":313.0759,"EPHEMERIS_TYPE":0,"CLASSIFICATION_TYPE":"U","NORAD_CAT_ID":32018,"ELEMENT_SET_NO":999,"REV_AT_EPOCH":3504,"BSTAR":0,"MEAN_MOTION_DOT":-1.53e-6,"MEAN_MOTION_DDOT":0},{"OBJECT_NAME":"BSAT-3A","OBJECT_ID":"2007-036B","EPOCH":"2023-04-27T01:13:42.557664","MEAN_MOTION":1.00271153,"ECCENTRICITY":3.39e-5,"INCLINATION":0.0364,"RA_OF_ASC_NODE":178.4082,"ARG_OF_PERICENTER":73.4597,"MEAN_ANOMALY":91.1809,"EPHEMERIS_TYPE":0,"CLASSIFICATION_TYPE":"U","NORAD_CAT_ID":32019,"ELEMENT_SET_NO":999,"REV_AT_EPOCH":5756,"BSTAR":0,"MEAN_MOTION_DOT":-3.52e-6,"MEAN_MOTION_DDOT":0},{"OBJECT_NAME":"OPTUS D2","OBJECT_ID":"2007-044A","EPOCH":"2023-04-26T20:57:42.719904","MEAN_MOTION":1.00271225,"ECCENTRICITY":0.0002809,"INCLINATION":0.0032,"RA_OF_ASC_NODE":67.2098,"ARG_OF_PERICENTER":332.0344,"MEAN_ANOMALY":289.788,"EPHEMERIS_TYPE":0,"CLASSIFICATION_TYPE":"U","NORAD_CAT_ID":32252,"ELEMENT_SET_NO":999,"REV_AT_EPOCH":5706,"BSTAR":0,"MEAN_MOTION_DOT":-1.13e-6,"MEAN_MOTION_DDOT":0},{"OBJECT_NAME":"INTELSAT 11 (IS-11)","OBJECT_ID":"2007-044B","EPOCH":"2023-04-26T17:46:49.558368","MEAN_MOTION":1.00273128,"ECCENTRICITY":0.0003045,"INCLINATION":0.5872,"RA_OF_ASC_NODE":92.5452,"ARG_OF_PERICENTER":307.9871,"MEAN_ANOMALY":37.6419,"EPHEMERIS_TYPE":0,"CLASSIFICATION_TYPE":"U","NORAD_CAT_ID":32253,"ELEMENT_SET_NO":999,"REV_AT_EPOCH":5698,"BSTAR":0,"MEAN_MOTION_DOT":-2.7e-6,"MEAN_MOTION_DDOT":0},{"OBJECT_NAME":"WGS F1 (USA 195)","OBJECT_ID":"2007-046A","EPOCH":"2023-04-26T23:51:42.874272","MEAN_MOTION":1.00270724,"ECCENTRICITY":3.19e-5,"INCLINATION":0.012,"RA_OF_ASC_NODE":255.6146,"ARG_OF_PERICENTER":352.7798,"MEAN_ANOMALY":330.2507,"EPHEMERIS_TYPE":0,"CLASSIFICATION_TYPE":"U","NORAD_CAT_ID":32258,"ELEMENT_SET_NO":999,"REV_AT_EPOCH":5681,"BSTAR":0,"MEAN_MOTION_DOT":3.9e-7,"MEAN_MOTION_DDOT":0},{"OBJECT_NAME":"SKYNET 5B","OBJECT_ID":"2007-056B","EPOCH":"2023-04-26T16:23:08.424096","MEAN_MOTION":1.00274772,"ECCENTRICITY":0.0003636,"INCLINATION":2.3194,"RA_OF_ASC_NODE":86.4963,"ARG_OF_PERICENTER":307.4892,"MEAN_ANOMALY":91.3365,"EPHEMERIS_TYPE":0,"CLASSIFICATION_TYPE":"U","NORAD_CAT_ID":32294,"ELEMENT_SET_NO":999,"REV_AT_EPOCH":5669,"BSTAR":0,"MEAN_MOTION_DOT":1.41e-6,"MEAN_MOTION_DDOT":0}]
